ONEWEB-0275             
1 48993U 21060AC  24297.71349243 -.00000035  00000+0 -12453-3 0  9996
2 48993  87.9132 348.5923 0002035  96.6424 263.4938 13.16591958160415
ONEWEB-0276             
1 48994U 21060AD  24298.20272794 -.00000252  00000+0 -69264-3 0  9991
2 48994  87.9134 348.4915 0002027  94.6450 265.4913 13.16595389161795
ONEWEB-0277             
1 48995U 21060AE  24298.51938410  .00000140  00000+0  33264-3 0  9995
2 48995  87.9134 348.4663 0002345  93.2396 266.9003 13.16594241161818
ONEWEB-0278             
1 48996U 21060AF  24298.20589439  .00000145  00000+0  34682-3 0  9995
2 48996  87.9132 348.4877 0001701  89.5974 270.5352 13.16594391161925
ONEWEB-0279             
1 48997U 21060AG  24298.51778747  .00000785  00000+0  20188-2 0  9997
2 48997  87.9131 348.4226 0002261  95.4807 264.6581 13.16594338161880
ONEWEB-0280             
1 48998U 21060AH  24298.53156292  .00000111  00000+0  25739-3 0  9996
2 48998  87.9136 348.4232 0002056  85.9665 274.1701 13.16639374161814
ONEWEB-0281             
1 48999U 21060AJ  24298.53838207 -.00000033  00000+0 -11908-3 0  9998
2 48999  87.9133 348.4224 0001897 103.3901 256.7441 13.16593604161905
ONEWEB-0282             
1 49000U 21060AK  24297.65650187 -.00000015  00000+0 -72435-4 0  9996
2 49000  87.9133 348.6143 0002098  91.1145 269.0226 13.16593258160451
